[{"OBJECT_NAME":"STARLINK-36178","OBJECT_ID":"2025-293Y","EPOCH":"2026-03-09T18:53:06.730944","MEAN_MOTION":14.9836025,"ECCENTRICITY":0.00031364,"INCLINATION":70.0026,"RA_OF_ASC_NODE":94.1594,"ARG_OF_PERICENTER":269.3092,"MEAN_ANOMALY":90.7708,"EPHEMERIS_TYPE":0,"CLASSIFICATION_TYPE":"U","NORAD_CAT_ID":67025,"ELEMENT_SET_NO":999,"REV_AT_EPOCH":1490,"BSTAR":-0.00019394647,"MEAN_MOTION_DOT":-2.408e-5,"MEAN_MOTION_DDOT":0},{"OBJECT_NAME":"COSMOS 2251 DEB","OBJECT_ID":"1993-036BRU","EPOCH":"2026-02-21T14:09:45.153216","MEAN_MOTION":14.99001579,"ECCENTRICITY":0.0017259,"INCLINATION":74.0061,"RA_OF_ASC_NODE":146.9269,"ARG_OF_PERICENTER":277.3195,"MEAN_ANOMALY":147.2685,"EPHEMERIS_TYPE":0,"CLASSIFICATION_TYPE":"U","NORAD_CAT_ID":38062,"ELEMENT_SET_NO":999,"REV_AT_EPOCH":64090,"BSTAR":0.0019091,"MEAN_MOTION_DOT":0.00023247,"MEAN_MOTION_DDOT":0}]
